HAWK-11A                
1 62382U 24247F   26068.51231358  .00009457  00000+0  34106-3 0  9991
2 62382  44.9941 114.3328 0005466 327.3713  32.6832 15.28849427 67741
STARLINK-35939          
1 66584U 25268AD  26068.09829599  .00037067  00000+0  13506-2 0  9994
2 66584  43.0045 350.0257 0001503 267.1798  92.8881 15.27559241 17878
